{"type": "FeatureCollection", "features": [ {"type": "Feature", "properties": {"norad_id": 44622, "name": "GAOFEN-10R", "group": "resource", "lat": -35.904873682292546, "lon": -68.71746991454955, "alt_km": 628.2024817902411, "timestamp": "2025-12-03T22:42:32.314409+00:00", "meta": {"OBJECT_NAME": "GAOFEN-10R", "OBJECT_ID": "2019-066A", "EPOCH": "2025-12-03T13:09:17.098848", "MEAN_MOTION": 14.82738219, "ECCENTRICITY": 0.0008248, "INCLINATION": 98.0262, "RA_OF_ASC_NODE": 285.0195, "ARG_OF_PERICENTER": 66.9754, "MEAN_ANOMALY": 293.2328, "EPHEMERIS_TYPE": 0, "CLASSIFICATION_TYPE": "U", "NORAD_CAT_ID": 44622, "ELEMENT_SET_NO": 999, "REV_AT_EPOCH": 33338, "BSTAR": 0.00035276, "MEAN_MOTION_DOT": 2.796e-05, "MEAN_MOTION_DDOT": 0}, "tle": {"line1": "1 44622U 19066A   25337.54811457  .00002796  00000+0  35276-3 0  9994", "line2": "2 44622  98.0262 285.0195 0008248  66.9754 293.2328 14.82738219333380"}}, "geometry": {"type": "Point", "coordinates": [-68.71746991454955, -35.904873682292546]}}, {"type": "Feature", "properties": {"norad_id": 44804, "name": "CARTOSAT-3", "group": "resource", "lat": 52.42443760426945, "lon": 27.834777785997147, "alt_km": 498.7644114073255, "timestamp": "2025-12-03T22:42:32.314418+00:00", "meta": {"OBJECT_NAME": "CARTOSAT-3", "OBJECT_ID": "2019-081A", "EPOCH": "2025-12-03T08:14:58.101792", "MEAN_MOTION": 15.19233546, "ECCENTRICITY": 0.0013756, "INCLINATION": 97.4604, "RA_OF_ASC_NODE": 37.0456, "ARG_OF_PERICENTER": 116.7209, "MEAN_ANOMALY": 243.5436, "EPHEMERIS_TYPE": 0, "CLASSIFICATION_TYPE": "U", "NORAD_CAT_ID": 44804, "ELEMENT_SET_NO": 999, "REV_AT_EPOCH": 33373, "BSTAR": 0.00015297, "MEAN_MOTION_DOT": 3.161e-05, "MEAN_MOTION_DDOT": 0}, "tle": {"line1": "1 44804U 19081A   25337.34372803  .00003161  00000+0  15297-3 0  9996", "line2": "2 44804  97.4604  37.0456 0013756 116.7209 243.5436 15.19233546333730"}}, "geometry": {"type": "Point", "coordinates": [27.834777785997147, 52.42443760426945]}}, {"type": "Feature", "properties": {"norad_id": 44819, "name": "GAOFEN-12 01", "group": "resource", "lat": -61.02845645212279, "lon": -1.1831986638415197, "alt_km": 633.5896205177951, "timestamp": "2025-12-03T22:42:32.314428+00:00", "meta": {"OBJECT_NAME": "GAOFEN-12 01", "OBJECT_ID": "2019-082A", "EPOCH": "2025-12-03T13:15:25.614720", "MEAN_MOTION": 14.80639665, "ECCENTRICITY": 0.0001264, "INCLINATION": 97.8128, "RA_OF_ASC_NODE": 344.0746, "ARG_OF_PERICENTER": 296.9297, "MEAN_ANOMALY": 63.1786, "EPHEMERIS_TYPE": 0, "CLASSIFICATION_TYPE": "U", "NORAD_CAT_ID": 44819, "ELEMENT_SET_NO": 999, "REV_AT_EPOCH": 32514, "BSTAR": 0.00011011, "MEAN_MOTION_DOT": 7.95e-06, "MEAN_MOTION_DDOT": 0}, "tle": {"line1": "1 44819U 19082A   25337.55237980  .00000795  00000+0  11011-3 0  9992", "line2": "2 44819  97.8128 344.0746 0001264 296.9297  63.1786 14.80639665325142"}}, "geometry": {"type": "Point", "coordinates": [-1.1831986638415197, -61.02845645212279]}}, {"type": "Feature", "properties": {"norad_id": 44873, "name": "CSG-1", "group": "resource", "lat": 1.203127588682793, "lon": 159.23585214229996, "alt_km": 625.3262021676001, "timestamp": "2025-12-03T22:42:32.314437+00:00", "meta": {"OBJECT_NAME": "CSG-1", "OBJECT_ID": "2019-092A", "EPOCH": "2025-12-03T12:58:54.923808", "MEAN_MOTION": 14.82143677, "ECCENTRICITY": 0.0001476, "INCLINATION": 97.8806, "RA_OF_ASC_NODE": 159.0035, "ARG_OF_PERICENTER": 86.9853, "MEAN_ANOMALY": 273.1529, "EPHEMERIS_TYPE": 0, "CLASSIFICATION_TYPE": "U", "NORAD_CAT_ID": 44873, "ELEMENT_SET_NO": 999, "REV_AT_EPOCH": 32249, "BSTAR": 0.00018656, "MEAN_MOTION_DOT": 1.433e-05, "MEAN_MOTION_DDOT": 0}, "tle": {"line1": "1 44873U 19092A   25337.54091347  .00001433  00000+0  18656-3 0  9999", "line2": "2 44873  97.8806 159.0035 0001476  86.9853 273.1529 14.82143677322498"}}, "geometry": {"type": "Point", "coordinates": [159.23585214229996, 1.203127588682793]}}, {"type": "Feature", "properties": {"norad_id": 46277, "name": "NEMO-HD", "group": "resource", "lat": 53.18647739196072, "lon": -133.0856908133199, "alt_km": 440.2515989362046, "timestamp": "2025-12-03T22:42:32.314447+00:00", "meta": {"OBJECT_NAME": "NEMO-HD", "OBJECT_ID": "2020-061F", "EPOCH": "2025-12-03T11:14:50.614368", "MEAN_MOTION": 15.4002724, "ECCENTRICITY": 0.0002359, "INCLINATION": 97.2233, "RA_OF_ASC_NODE": 36.6866, "ARG_OF_PERICENTER": 67.8511, "MEAN_ANOMALY": 292.2986, "EPHEMERIS_TYPE": 0, "CLASSIFICATION_TYPE": "U", "NORAD_CAT_ID": 46277, "ELEMENT_SET_NO": 999, "REV_AT_EPOCH": 29181, "BSTAR": 0.00036053, "MEAN_MOTION_DOT": 0.00014326, "MEAN_MOTION_DDOT": 0}, "tle": {"line1": "1 46277U 20061F   25337.46864137  .00014326  00000+0  36053-3 0  9999", "line2": "2 46277  97.2233  36.6866 0002359  67.8511 292.2986 15.40027240291810"}}, "geometry": {"type": "Point", "coordinates": [-133.0856908133199, 53.18647739196072]}}, {"type": "Feature", "properties": {"norad_id": 46984, "name": "SENTINEL-6A", "group": "resource", "lat": -46.920050715331875, "lon": 28.96522546291713, "alt_km": 1338.7605731208405, "timestamp": "2025-12-03T22:42:32.314456+00:00", "meta": {"OBJECT_NAME": "SENTINEL-6A", "OBJECT_ID": "2020-086A", "EPOCH": "2025-12-03T12:07:36.718176", "MEAN_MOTION": 12.80930117, "ECCENTRICITY": 0.0007725, "INCLINATION": 66.0389, "RA_OF_ASC_NODE": 181.4883, "ARG_OF_PERICENTER": 269.1629, "MEAN_ANOMALY": 90.8501, "EPHEMERIS_TYPE": 0, "CLASSIFICATION_TYPE": "U", "NORAD_CAT_ID": 46984, "ELEMENT_SET_NO": 999, "REV_AT_EPOCH": 23526, "BSTAR": 0.00017302, "MEAN_MOTION_DOT": -2.1e-07, "MEAN_MOTION_DDOT": 0}, "tle": {"line1": "1 46984U 20086A   25337.50528609 -.00000021  00000+0  17302-3 0  9991", "line2": "2 46984  66.0389 181.4883 0007725 269.1629  90.8501 12.80930117235267"}}, "geometry": {"type": "Point", "coordinates": [28.96522546291713, -46.920050715331875]}}, {"type": "Feature", "properties": {"norad_id": 48079, "name": "GAOFEN-12 02", "group": "resource", "lat": -50.74020039024481, "lon": -18.11570770549125, "alt_km": 636.433811081989, "timestamp": "2025-12-03T22:42:32.314465+00:00", "meta": {"OBJECT_NAME": "GAOFEN-12 02", "OBJECT_ID": "2021-026A", "EPOCH": "2025-12-03T13:12:34.774272", "MEAN_MOTION": 14.80656965, "ECCENTRICITY": 0.0003268, "INCLINATION": 97.9849, "RA_OF_ASC_NODE": 331.6014, "ARG_OF_PERICENTER": 119.4142, "MEAN_ANOMALY": 240.7396, "EPHEMERIS_TYPE": 0, "CLASSIFICATION_TYPE": "U", "NORAD_CAT_ID": 48079, "ELEMENT_SET_NO": 999, "REV_AT_EPOCH": 25281, "BSTAR": 0.00011044, "MEAN_MOTION_DOT": 7.96e-06, "MEAN_MOTION_DDOT": 0}, "tle": {"line1": "1 48079U 21026A   25337.55040248  .00000796  00000+0  11044-3 0  9991", "line2": "2 48079  97.9849 331.6014 0003268 119.4142 240.7396 14.80656965252814"}}, "geometry": {"type": "Point", "coordinates": [-18.11570770549125, -50.74020039024481]}}, {"type": "Feature", "properties": {"norad_id": 48268, "name": "PLEIADES NEO 3", "group": "resource", "lat": -16.08375028592382, "lon": 52.80600120484953, "alt_km": 629.1994449730873, "timestamp": "2025-12-03T22:42:32.314475+00:00", "meta": {"OBJECT_NAME": "PLEIADES NEO 3", "OBJECT_ID": "2021-034A", "EPOCH": "2025-12-03T13:03:26.650080", "MEAN_MOTION": 14.81668009, "ECCENTRICITY": 0.0001266, "INCLINATION": 97.8948, "RA_OF_ASC_NODE": 50.1167, "ARG_OF_PERICENTER": 93.5658, "MEAN_ANOMALY": 266.57, "EPHEMERIS_TYPE": 0, "CLASSIFICATION_TYPE": "U", "NORAD_CAT_ID": 48268, "ELEMENT_SET_NO": 999, "REV_AT_EPOCH": 24868, "BSTAR": -1.6062e-06, "MEAN_MOTION_DOT": -6.5e-07, "MEAN_MOTION_DDOT": 0}, "tle": {"line1": "1 48268U 21034A   25337.54405845 -.00000065  00000+0 -16062-5 0  9995", "line2": "2 48268  97.8948  50.1167 0001266  93.5658 266.5700 14.81668009248683"}}, "geometry": {"type": "Point", "coordinates": [52.80600120484953, -16.08375028592382]}}, {"type": "Feature", "properties": {"norad_id": 49070, "name": "PLEIADES NEO 4", "group": "resource", "lat": 15.760106916670555, "lon": -127.24647482664894, "alt_km": 624.4807417798766, "timestamp": "2025-12-03T22:42:32.314485+00:00", "meta": {"OBJECT_NAME": "PLEIADES NEO 4", "OBJECT_ID": "2021-073E", "EPOCH": "2025-12-03T12:14:48.257664", "MEAN_MOTION": 14.81672005, "ECCENTRICITY": 0.0001265, "INCLINATION": 97.8949, "RA_OF_ASC_NODE": 50.0795, "ARG_OF_PERICENTER": 97.3163, "MEAN_ANOMALY": 262.8194, "EPHEMERIS_TYPE": 0, "CLASSIFICATION_TYPE": "U", "NORAD_CAT_ID": 49070, "ELEMENT_SET_NO": 999, "REV_AT_EPOCH": 23239, "BSTAR": 1.7608e-06, "MEAN_MOTION_DOT": -3.8e-07, "MEAN_MOTION_DDOT": 0}, "tle": {"line1": "1 49070U 21073E   25337.51028076 -.00000038  00000+0  17608-5 0  9990", "line2": "2 49070  97.8949  50.0795 0001265  97.3163 262.8194 14.81672005232392"}}, "geometry": {"type": "Point", "coordinates": [-127.24647482664894, 15.760106916670555]}}, {"type": "Feature", "properties": {"norad_id": 49260, "name": "LANDSAT 9", "group": "resource", "lat": -55.89732305287113, "lon": -146.12771278399796, "alt_km": 710.1867341977786, "timestamp": "2025-12-03T22:42:32.314494+00:00", "meta": {"OBJECT_NAME": "LANDSAT 9", "OBJECT_ID": "2021-088A", "EPOCH": "2025-12-03T05:08:43.061856", "MEAN_MOTION": 14.57114347, "ECCENTRICITY": 0.0001076, "INCLINATION": 98.2104, "RA_OF_ASC_NODE": 45.4628, "ARG_OF_PERICENTER": 92.6591, "MEAN_ANOMALY": 267.4731, "EPHEMERIS_TYPE": 0, "CLASSIFICATION_TYPE": "U", "NORAD_CAT_ID": 49260, "ELEMENT_SET_NO": 999, "REV_AT_EPOCH": 22246, "BSTAR": 0.00016953, "MEAN_MOTION_DOT": 7.19e-06, "MEAN_MOTION_DDOT": 0}, "tle": {"line1": "1 49260U 21088A   25337.21438729  .00000719  00000+0  16953-3 0  9999", "line2": "2 49260  98.2104  45.4628 0001076  92.6591 267.4731 14.57114347222465"}}, "geometry": {"type": "Point", "coordinates": [-146.12771278399796, -55.89732305287113]}}]}